{"type":"FeatureCollection", "features": [
{"type":"Feature","geometry":{"type":"Polygon","coordinates":[[[-59.572,-80.04],[-64.488,-80.922],[-60.16,-81],[-59.572,-80.04]]]},"properties":{"scalerank":1,"featureclass":"Country"}},
{"type":"Feature","geometry":{"type":"Polygon","coordinates":[[[-159.208,-79.497],[-161.245,-78.38],[-163.713,-78.596],[-159.208,-79.497]]]},"properties":{"scalerank":1,"featureclass":"Country"}},
{"type":"Feature","geometry":{"type":"Polygon","coordinates":[[[-45.155,-78.047],[-48.661,-78.047],[-51.853,-79.948],[-50.482,-81.025],[-43.333,-80.026],[-45.155,-78.047]]]},"properties":{"scalerank":1,"featureclass":"Country"}},
{"type":"Feature","geometry":{"type":"Polygon","coordinates":[[[-121.212,-73.501],[-121.623,-74.01],[-119.292,-73.834],[-121.212,-73.501]]]},"properties":{"scalerank":1,"featureclass":"Country"}},
{"type":"Feature","geometry":{"type":"Polygon","coordinates":[[[-125.56,-73.481],[-126.558,-73.246],[-127.283,-73.462],[-125.912,-73.736],[-125.56,-73.481]]]},"properties":{"scalerank":1,"featureclass":"Country"}},
{"type":"Feature","geometry":{"type":"Polygon","coordinates":[[[-98.982,-71.933],[-101.704,-71.718],[-100.783,-72.502],[-98.982,-71.933]]]},"properties":{"scalerank":1,"featureclass":"Country"}},
{"type":"Feature","geometry":{"type":"Polygon","coordinates":[[[-68.451,-70.956],[-69.724,-69.251],[-71.742,-69.506],[-72.075,-71.191],[-75.013,-71.661],[-74.19,-72.367],[-68.784,-72.171],[-68.451,-70.956]]]},"properties":{"scalerank":1,"featureclass":"Country"}},
{"type":"Feature","geometry":{"type":"Polygon","coordinates":[[[-58.614,-64.152],[-59.887,-63.957],[-63.001,-64.642],[-66.057,-66.21],[-67.741,-67.327],[-67.428,-68.15],[-68.485,-70.109],[-67.252,-71.638],[-68.936,-73.009],[-76.222,-73.97],[-77.926,-73.421],[-81.471,-73.852],[-88.424,-73.009],[-96.337,-73.617],[-100.313,-72.755],[-103.681,-72.618],[-101.253,-74.185],[-100.646,-75.302],[-104.876,-74.949],[-107.559,-75.184],[-113.944,-73.715],[-116.216,-74.244],[-125.402,-74.518],[-128.242,-74.322],[-135.215,-74.303],[-144.322,-75.537],[-146.104,-76.478],[-151.334,-77.399],[-156.975,-77.301],[-158.052,-78.026],[-155.329,-79.064],[-149.532,-79.358],[-147.221,-80.671],[-152.862,-82.043],[-153.586,-83.689],[-142.892,-84.57],[-148.533,-85.609],[-167.022,-84.57],[-179.942,-84.721],[-180,-84.713],[-180,-90],[180,-90],[180,-84.713],[162.491,-82.062],[159.788,-80.945],[161.766,-79.162],[166.996,-78.751],[163.49,-77.066],[164.234,-75.459],[166.095,-74.381],[169.287,-73.656],[171.207,-71.697],[168.426,-70.971],[162.687,-70.736],[159.181,-69.6],[154.285,-68.561],[152.502,-68.875],[146.646,-67.895],[145.49,-66.915],[143.062,-66.798],[137.46,-66.955],[135.874,-66.034],[130.781,-66.426],[128.803,-66.759],[122.32,-66.563],[120.871,-67.19],[115.602,-66.7],[113.605,-65.877],[110.236,-66.7],[106.182,-66.935],[102.832,-65.563],[99.718,-67.249],[95.018,-67.17],[90.63,-67.229],[87.477,-66.876],[82.776,-67.209],[79.114,-68.326],[77.645,-69.463],[73.865,-69.874],[71.025,-72.088],[67.813,-70.305],[69.556,-69.678],[68.89,-67.934],[64.052,-67.405],[62.387,-68.013],[58.745,-67.288],[56.355,-65.975],[52.614,-66.053],[46.503,-67.601],[40.02,-69.11],[38.649,-69.776],[33.87,-68.503],[32.754,-69.384],[27.094,-70.462],[23.666,-70.521],[19.259,-69.894],[13.423,-69.972],[10.818,-70.834],[9.525,-70.011],[7.136,-70.247],[0.868,-71.305],[-1.795,-71.167],[-7.417,-71.697],[-10.296,-71.265],[-15.447,-73.147],[-15.701,-74.499],[-21.225,-75.909],[-28.883,-76.674],[-35.777,-78.339],[-35.64,-79.456],[-29.686,-79.26],[-28.55,-80.338],[-40.771,-81.357],[-42.808,-82.082],[-49.761,-81.729],[-57.008,-82.866],[-63.256,-81.749],[-75.36,-80.26],[-77.926,-78.378],[-73.656,-77.908],[-77.24,-76.713],[-70.601,-76.634],[-61.963,-74.44],[-60.69,-73.166],[-61.513,-71.089],[-63.197,-69.228],[-65.508,-67.582],[-63.746,-66.504],[-62.12,-66.19],[-62.512,-65.093],[-60.612,-64.309],[-58.614,-64.152]]]},"properties":{"scalerank":1,"featureclass":"Country"}},
{"type":"Feature","geometry":{"type":"Polygon","coordinates":[[[-67.75,-53.85],[-68.634,-52.636],[-70.267,-52.931],[-71.108,-54.074],[-71.006,-55.054],[-68.149,-55.612],[-65.5,-55.2],[-67.75,-53.85]]]},"properties":{"scalerank":1,"featureclass":"Country"}},
{"type":"Feature","geometry":{"type":"Polygon","coordinates":[[[-58.55,-51.1],[-60,-51.25],[-60.7,-52.3],[-58.05,-51.9],[-58.55,-51.1]]]},"properties":{"scalerank":1,"featureclass":"Country"}},
{"type":"Feature","geometry":{"type":"Polygon","coordinates":[[[70.28,-49.71],[70.525,-49.065],[68.935,-48.625],[68.745,-49.775],[70.28,-49.71]]]},"properties":{"scalerank":1,"featureclass":"Country"}},
{"type":"Feature","geometry":{"type":"Polygon","coordinates":[[[145.398,-40.793],[144.718,-41.163],[146.048,-43.55],[146.87,-43.635],[148.36,-42.062],[148.289,-40.875],[146.364,-41.138],[145.398,-40.793]]]},"properties":{"scalerank":1,"featureclass":"Country"}},
{"type":"Feature","geometry":{"type":"Polygon","coordinates":[[[173.02,-40.919],[172.097,-40.956],[171.125,-42.513],[167.046,-45.111],[166.677,-46.22],[169.332,-46.641],[170.617,-45.909],[171.453,-44.243],[172.309,-43.866],[174.249,-41.77],[173.02,-40.919]]]},"properties":{"scalerank":1,"featureclass":"Country"}},
{"type":"Feature","geometry":{"type":"Polygon","coordinates":[[[174.612,-36.156],[174.329,-35.265],[173.054,-35.237],[174.697,-37.381],[174.575,-38.798],[173.824,-39.509],[176.012,-41.29],[177.033,-39.88],[177.97,-39.166],[178.517,-37.695],[176.763,-37.881],[175.337,-37.209],[174.612,-36.156]]]},"properties":{"scalerank":1,"featureclass":"Country"}},
{"type":"Feature","geometry":{"type":"Polygon","coordinates":[[[167.12,-22.16],[165.02,-20.46],[165.474,-21.68],[166.74,-22.4],[167.12,-22.16]]]},"properties":{"scalerank":1,"featureclass":"Country"}},
{"type":"Feature","geometry":{"type":"Polygon","coordinates":[[[178.374,-17.34],[177.671,-17.381],[177.381,-18.164],[178.553,-18.151],[178.374,-17.34]]]},"properties":{"scalerank":1,"featureclass":"Country"}},
{"type":"Feature","geometry":{"type":"Polygon","coordinates":[[[179.364,-16.801],[180,-16.555],[180,-16.067],[178.597,-16.639],[179.364,-16.801]]]},"properties":{"scalerank":1,"featureclass":"Country"}},
{"type":"Feature","geometry":{"type":"Polygon","coordinates":[[[-179.917,-16.502],[-179.793,-16.021],[-180,-16.067],[-180,-16.555],[-179.917,-16.502]]]},"properties":{"scalerank":1,"featureclass":"Country"}},
{"type":"Feature","geometry":{"type":"Polygon","coordinates":[[[167.845,-16.466],[167.217,-15.892],[167.18,-16.16],[167.515,-16.598],[167.845,-16.466]]]},"properties":{"scalerank":1,"featureclass":"Country"}},
{"type":"Feature","geometry":{"type":"Polygon","coordinates":[[[167.108,-14.934],[166.793,-15.669],[167.27,-15.74],[167.108,-14.934]]]},"properties":{"scalerank":1,"featureclass":"Country"}},
{"type":"Feature","geometry":{"type":"Polygon","coordinates":[[[50.057,-13.556],[48.845,-13.089],[47.705,-14.594],[46.312,-15.78],[44.447,-16.216],[43.963,-17.41],[44.464,-19.435],[44.374,-20.072],[43.254,-22.057],[44.04,-24.988],[45.41,-25.601],[47.096,-24.942],[48.549,-20.497],[49.436,-17.953],[49.499,-17.106],[50.477,-15.227],[50.057,-13.556]]]},"properties":{"scalerank":1,"featureclass":"Country"}},
{"type":"Feature","geometry":{"type":"Polygon","coordinates":[[[143.562,-13.764],[143.522,-12.834],[142.515,-10.668],[141.687,-12.408],[141.702,-15.045],[140.875,-17.369],[139.261,-17.372],[135.429,-14.715],[136.952,-12.352],[136.492,-11.857],[135.298,-12.249],[133.551,-11.787],[131.223,-12.184],[130.618,-12.536],[129.41,-14.421],[128.36,-14.869],[127.066,-13.818],[125.686,-14.231],[123.817,-16.111],[122.313,-17.255],[122.242,-18.198],[120.856,-19.684],[119.252,-19.953],[117.442,-20.747],[116.712,-20.702],[114.648,-21.83],[113.843,-23.06],[113.394,-24.385],[113.441,-25.621],[114.174,-28.118],[115.04,-29.461],[115.802,-32.205],[115.027,-34.197],[116.625,-35.025],[118.025,-35.065],[119.894,-33.976],[123.66,-33.89],[124.222,-32.959],[126.149,-32.216],[127.103,-32.282],[129.536,-31.59],[131.326,-31.496],[134.274,-32.617],[135.989,-34.89],[136.372,-34.095],[138.121,-35.612],[139.574,-36.138],[140.639,-38.019],[143.61,-38.809],[144.486,-38.085],[146.318,-39.036],[148.305,-37.809],[149.997,-37.425],[150.075,-36.42],[151.709,-33.041],[152.892,-31.64],[153.569,-28.11],[153.093,-27.26],[152.855,-25.268],[150.9,-23.462],[150.727,-22.402],[149.678,-22.343],[148.848,-20.391],[146.387,-18.958],[145.637,-16.785],[145.375,-14.985],[144.564,-14.171],[143.562,-13.764]]]},"properties":{"scalerank":1,"featureclass":"Country"}},
{"type":"Feature","geometry":{"type":"Polygon","coordinates":[[[162.119,-10.483],[161.32,-10.205],[161.7,-10.82],[162.119,-10.483]]]},"properties":{"scalerank":1,"featureclass":"Country"}},
{"type":"Feature","geometry":{"type":"Polygon","coordinates":[[[120.716,-10.24],[119.9,-9.361],[118.968,-9.558],[120.295,-10.259],[120.716,-10.24]]]},"properties":{"scalerank":1,"featureclass":"Country"}},
{"type":"Feature","geometry":{"type":"Polygon","coordinates":[[[160.852,-9.873],[160.363,-9.4],[159.703,-9.243],[159.849,-9.794],[160.852,-9.873]]]},"properties":{"scalerank":1,"featureclass":"Country"}},
{"type":"Feature","geometry":{"type":"Polygon","coordinates":[[[161.68,-9.6],[161.28,-9.12],[160.92,-8.32],[160.58,-8.32],[160.788,-8.918],[161.529,-9.784],[161.68,-9.6]]]},"properties":{"scalerank":1,"featureclass":"Country"}},
{"type":"Feature","geometry":{"type":"Polygon","coordinates":[[[124.436,-10.14],[125.089,-9.393],[123.98,-9.29],[124.436,-10.14]]]},"properties":{"scalerank":1,"featureclass":"Country"}},
{"type":"Feature","geometry":{"type":"Polygon","coordinates":[[[117.9,-8.096],[117.278,-9.041],[119.127,-8.706],[117.9,-8.096]]]},"properties":{"scalerank":1,"featureclass":"Country"}},
{"type":"Feature","geometry":{"type":"Polygon","coordinates":[[[122.904,-8.094],[121.342,-8.537],[121.254,-8.934],[122.757,-8.65],[122.904,-8.094]]]},"properties":{"scalerank":1,"featureclass":"Country"}},
{"type":"Feature","geometry":{"type":"Polygon","coordinates":[[[159.875,-8.337],[159.64,-8.02],[158.36,-7.32],[158.586,-7.755],[159.134,-8.114],[159.875,-8.337]]]},"properties":{"scalerank":1,"featureclass":"Country"}},
{"type":"Feature","geometry":{"type":"Polygon","coordinates":[[[157.538,-7.348],[156.543,-6.599],[156.491,-6.766],[156.902,-7.177],[157.538,-7.348]]]},"properties":{"scalerank":1,"featureclass":"Country"}},
{"type":"Feature","geometry":{"type":"Polygon","coordinates":[[[108.623,-6.778],[107.265,-5.955],[106.052,-5.896],[105.365,-6.851],[106.454,-7.355],[108.278,-7.767],[109.428,-7.741],[111.522,-8.302],[113.465,-8.349],[112.615,-6.946],[110.76,-6.465],[110.539,-6.877],[108.623,-6.778]]]},"properties":{"scalerank":1,"featureclass":"Country"}},
{"type":"Feature","geometry":{"type":"Polygon","coordinates":[[[134.725,-6.214],[134.5,-5.445],[134.113,-6.142],[134.725,-6.214]]]},"properties":{"scalerank":1,"featureclass":"Country"}},
{"type":"Feature","geometry":{"type":"Polygon","coordinates":[[[155.88,-6.82],[155.063,-5.567],[154.729,-5.901],[155.88,-6.82]]]},"properties":{"scalerank":1,"featureclass":"Country"}},
{"type":"Feature","geometry":{"type":"Polygon","coordinates":[[[151.983,-5.478],[150.807,-5.456],[148.319,-5.747],[150.241,-6.318],[151.983,-5.478]]]},"properties":{"scalerank":1,"featureclass":"Country"}},
{"type":"Feature","geometry":{"type":"Polygon","coordinates":[[[127.249,-3.459],[127.001,-3.129],[125.989,-3.177],[126.184,-3.607],[126.875,-3.791],[127.249,-3.459]]]},"properties":{"scalerank":1,"featureclass":"Country"}},
{"type":"Feature","geometry":{"type":"Polygon","coordinates":[[[130.471,-3.094],[128.136,-2.844],[127.899,-3.393],[129.991,-3.446],[130.471,-3.094]]]},"properties":{"scalerank":1,"featureclass":"Country"}},
{"type":"Feature","geometry":{"type":"Polygon","coordinates":[[[153.14,-4.5],[153.02,-3.98],[152.24,-3.24],[152.827,-4.766],[153.14,-4.5]]]},"properties":{"scalerank":1,"featureclass":"Country"}},
{"type":"Feature","geometry":{"type":"Polygon","coordinates":[[[134.143,-1.152],[132.38,-0.37],[131.836,-1.617],[131.99,-2.821],[133.663,-3.539],[135.165,-4.463],[135.989,-4.547],[137.928,-5.393],[138.669,-7.32],[137.614,-8.412],[140.143,-8.297],[141.034,-9.118],[142.628,-9.327],[143.286,-8.245],[144.744,-7.63],[146.048,-8.067],[146.568,-8.943],[147.913,-10.13],[149.782,-10.393],[146.971,-6.722],[147.648,-6.084],[145.982,-5.466],[145.83,-4.876],[144.584,-3.861],[141,-2.6],[138.33,-1.703],[137.441,-1.704],[136.293,-2.307],[135.458,-3.368],[134.423,-2.769],[134.143,-1.152]]]},"properties":{"scalerank":1,"featureclass":"Country"}},
{"type":"Feature","geometry":{"type":"Polygon","coordinates":[[[125.241,1.42],[124.078,0.917],[121.667,1.014],[120.886,1.309],[120.036,0.566],[118.768,-2.802],[119.499,-3.494],[119.367,-5.38],[120.431,-5.528],[120.305,-2.932],[121.619,-4.188],[122.629,-5.635],[123.171,-4.684],[122.455,-3.186],[121.508,-1.904],[120.041,-0.52],[120.183,0.237],[124.437,0.428],[125.241,1.42]]]},"properties":{"scalerank":1,"featureclass":"Country"}},
{"type":"Feature","geometry":{"type":"Polygon","coordinates":[[[128.688,1.132],[127.601,1.811],[127.399,1.012],[128.12,0.356],[128.688,1.132]]]},"properties":{"scalerank":1,"featureclass":"Country"}},
{"type":"Feature","geometry":{"type":"Polygon","coordinates":[[[105.818,-5.852],[106.109,-3.062],[104.888,-2.34],[104.37,-1.085],[103.438,-0.712],[103.838,0.105],[103.077,0.561],[101.658,2.084],[100.641,2.099],[97.485,5.246],[95.293,5.48],[95.381,4.971],[98.601,1.824],[99.264,0.183],[100.142,-0.65],[101.399,-2.8],[102.584,-4.22],[104.71,-5.873],[105.818,-5.852]]]},"properties":{"scalerank":1,"featureclass":"Country"}},
{"type":"Feature","geometry":{"type":"Polygon","coordinates":[[[117.876,1.828],[117.313,3.234],[118.618,4.478],[119.182,5.408],[117.689,5.987],[116.725,6.925],[116.221,6.143],[114.6,4.9],[112.996,3.102],[111.37,2.697],[111.169,1.851],[109.663,2.006],[109.069,1.342],[109.092,-0.46],[110.071,-1.593],[110.224,-2.934],[111.703,-2.994],[112.068,-3.478],[113.257,-3.119],[114.469,-3.496],[114.865,-4.107],[116.001,-3.657],[116.534,-2.484],[116.56,-1.488],[117.522,-0.804],[117.876,1.828]]]},"properties":{"scalerank":1,"featureclass":"Country"}},
{"type":"Feature","geometry":{"type":"Polygon","coordinates":[[[126.377,8.415],[126.223,9.286],[123.488,8.693],[122.312,8.035],[123.296,7.419],[124.22,6.161],[125.397,5.581],[125.364,6.786],[126.537,7.189],[126.377,8.415]]]},"properties":{"scalerank":1,"featureclass":"Country"}},
{"type":"Feature","geometry":{"type":"Polygon","coordinates":[[[81.218,6.197],[81.788,7.523],[80.839,9.268],[80.148,9.824],[79.695,8.201],[79.872,6.763],[80.348,5.968],[81.218,6.197]]]},"properties":{"scalerank":1,"featureclass":"Country"}},
{"type":"Feature","geometry":{"type":"Polygon","coordinates":[[[-60.935,10.11],[-60.895,10.855],[-61.68,10.76],[-61.77,10],[-60.935,10.11]]]},"properties":{"scalerank":1,"featureclass":"Country"}},
{"type":"Feature","geometry":{"type":"Polygon","coordinates":[[[123.982,10.279],[122.947,10.882],[122.38,9.713],[122.996,9.022],[123.982,10.279]]]},"properties":{"scalerank":1,"featureclass":"Country"}},
{"type":"Feature","geometry":{"type":"Polygon","coordinates":[[[118.505,9.316],[119.69,10.554],[119.511,11.37],[118.987,10.376],[118.387,9.684],[118.505,9.316]]]},"properties":{"scalerank":1,"featureclass":"Country"}},
{"type":"Feature","geometry":{"type":"Polygon","coordinates":[[[121.884,11.892],[122.003,10.441],[123.101,11.166],[121.884,11.892]]]},"properties":{"scalerank":1,"featureclass":"Country"}},
{"type":"Feature","geometry":{"type":"Polygon","coordinates":[[[125.503,12.163],[125.227,12.536],[124.267,12.558],[124.878,11.794],[125.503,12.163]]]},"properties":{"scalerank":1,"featureclass":"Country"}},
{"type":"Feature","geometry":{"type":"Polygon","coordinates":[[[121.527,13.07],[120.323,13.466],[121.262,12.206],[121.527,13.07]]]},"properties":{"scalerank":1,"featureclass":"Country"}},
{"type":"Feature","geometry":{"type":"Polygon","coordinates":[[[121.321,18.504],[120.39,17.599],[120.07,14.971],[121.126,13.637],[122.035,13.784],[122.671,13.186],[123.95,13.782],[122.701,14.337],[121.729,14.328],[121.663,15.931],[122.516,17.094],[121.321,18.504]]]},"properties":{"scalerank":1,"featureclass":"Country"}},
{"type":"Feature","geometry":{"type":"Polygon","coordinates":[[[-65.591,18.228],[-67.101,18.521],[-67.184,17.947],[-65.591,18.228]]]},"properties":{"scalerank":1,"featureclass":"Country"}},
{"type":"Feature","geometry":{"type":"Polygon","coordinates":[[[-76.903,17.868],[-76.897,18.401],[-77.797,18.524],[-78.338,18.226],[-77.206,17.701],[-76.903,17.868]]]},"properties":{"scalerank":1,"featureclass":"Country"}},
{"type":"Feature","geometry":{"type":"Polygon","coordinates":[[[-72.58,19.872],[-72.695,18.446],[-71.708,18.045],[-68.318,18.612],[-69.222,19.313],[-70.807,19.88],[-72.58,19.872]]]},"properties":{"scalerank":1,"featureclass":"Country"}},
{"type":"Feature","geometry":{"type":"Polygon","coordinates":[[[110.339,18.678],[111.01,19.696],[110.212,20.101],[108.626,19.368],[108.655,18.508],[109.475,18.198],[110.339,18.678]]]},"properties":{"scalerank":1,"featureclass":"Country"}},
{"type":"Feature","geometry":{"type":"Polygon","coordinates":[[[-155.542,19.083],[-154.831,19.453],[-155.785,20.249],[-156.073,19.703],[-155.542,19.083]]]},"properties":{"scalerank":1,"featureclass":"Country"}},
{"type":"Feature","geometry":{"type":"Polygon","coordinates":[[[-156.079,20.644],[-156.257,20.917],[-156.711,20.927],[-156.414,20.572],[-156.079,20.644]]]},"properties":{"scalerank":1,"featureclass":"Country"}},
{"type":"Feature","geometry":{"type":"Polygon","coordinates":[[[-156.758,21.177],[-157.25,21.22],[-157.325,21.098],[-156.789,21.069],[-156.758,21.177]]]},"properties":{"scalerank":1,"featureclass":"Country"}},
{"type":"Feature","geometry":{"type":"Polygon","coordinates":[[[-157.653,21.322],[-158.025,21.717],[-158.127,21.312],[-157.653,21.322]]]},"properties":{"scalerank":1,"featureclass":"Country"}},
{"type":"Feature","geometry":{"type":"Polygon","coordinates":[[[-159.345,21.982],[-159.596,22.236],[-159.801,22.065],[-159.464,21.883],[-159.345,21.982]]]},"properties":{"scalerank":1,"featureclass":"Country"}},
{"type":"Feature","geometry":{"type":"Polygon","coordinates":[[[-79.68,22.765],[-82.268,23.189],[-81.821,22.192],[-78.72,21.598],[-77.755,19.855],[-75.635,19.874],[-74.178,20.285],[-76.524,21.207],[-78.347,22.512],[-79.68,22.765]]]},"properties":{"scalerank":1,"featureclass":"Country"}},
{"type":"Feature","geometry":{"type":"Polygon","coordinates":[[[-77.535,23.76],[-77.89,25.17],[-78.408,24.576],[-77.535,23.76]]]},"properties":{"scalerank":1,"featureclass":"Country"}},
{"type":"Feature","geometry":{"type":"Polygon","coordinates":[[[121.176,22.791],[121.951,24.998],[121.495,25.295],[120.106,23.556],[121.176,22.791]]]},"properties":{"scalerank":1,"featureclass":"Country"}},
{"type":"Feature","geometry":{"type":"Polygon","coordinates":[[[-77.82,26.58],[-78.98,26.79],[-78.91,26.42],[-77.82,26.58]]]},"properties":{"scalerank":1,"featureclass":"Country"}},
{"type":"Feature","geometry":{"type":"Polygon","coordinates":[[[-77,26.59],[-77.34,26.53],[-77.356,26.007],[-77.173,25.879],[-77,26.59]]]},"properties":{"scalerank":1,"featureclass":"Country"}},
{"type":"Feature","geometry":{"type":"Polygon","coordinates":[[[134.638,34.149],[132.924,34.06],[133.28,33.29],[134.203,33.201],[134.638,34.149]]]},"properties":{"scalerank":1,"featureclass":"Country"}},
{"type":"Feature","geometry":{"type":"Polygon","coordinates":[[[34.576,35.672],[32.257,35.103],[32.98,34.572],[34.576,35.672]]]},"properties":{"scalerank":1,"featureclass":"Country"}},
{"type":"Feature","geometry":{"type":"Polygon","coordinates":[[[23.7,35.705],[23.515,35.28],[26.165,35.005],[26.29,35.3],[24.247,35.368],[23.7,35.705]]]},"properties":{"scalerank":1,"featureclass":"Country"}},
{"type":"Feature","geometry":{"type":"Polygon","coordinates":[[[15.52,38.231],[12.431,37.613],[15.1,36.62],[15.52,38.231]]]},"properties":{"scalerank":1,"featureclass":"Country"}},
{"type":"Feature","geometry":{"type":"Polygon","coordinates":[[[9.21,41.21],[8.388,40.378],[8.428,39.172],[9.67,39.177],[9.81,40.5],[9.21,41.21]]]},"properties":{"scalerank":1,"featureclass":"Country"}},
{"type":"Feature","geometry":{"type":"Polygon","coordinates":[[[140.976,37.142],[140.959,38.174],[141.885,39.181],[141.369,41.379],[139.883,40.563],[140.055,39.439],[139.426,38.216],[137.391,36.827],[136.724,37.305],[135.678,35.527],[134.608,35.732],[132.618,35.433],[129.408,33.296],[131.333,31.45],[132.157,33.905],[135.079,34.597],[135.793,33.465],[137.218,34.606],[138.976,34.668],[140.253,35.138],[140.976,37.142]]]},"properties":{"scalerank":1,"featureclass":"Country"}},
{"type":"Feature","geometry":{"type":"Polygon","coordinates":[[[9.56,42.152],[9.39,43.01],[8.544,42.257],[9.56,42.152]]]},"properties":{"scalerank":1,"featureclass":"Country"}},
{"type":"Feature","geometry":{"type":"Polygon","coordinates":[[[143.91,44.174],[141.968,45.551],[141.381,43.389],[140.312,43.333],[139.955,41.57],[141.067,41.585],[141.611,42.679],[143.184,41.995],[144.06,42.988],[143.91,44.174]]]},"properties":{"scalerank":1,"featureclass":"Country"}},
{"type":"Feature","geometry":{"type":"Polygon","coordinates":[[[-63.664,46.55],[-64.143,46.393],[-62.874,45.968],[-62.939,46.416],[-63.664,46.55]]]},"properties":{"scalerank":1,"featureclass":"Country"}},
{"type":"Feature","geometry":{"type":"Polygon","coordinates":[[[-61.806,49.105],[-62.858,49.706],[-63.589,49.401],[-61.806,49.105]]]},"properties":{"scalerank":1,"featureclass":"Country"}},
{"type":"Feature","geometry":{"type":"Polygon","coordinates":[[[-123.51,48.51],[-125.755,50.295],[-128.358,50.771],[-125.655,48.825],[-123.51,48.51]]]},"properties":{"scalerank":1,"featureclass":"Country"}},
{"type":"Feature","geometry":{"type":"Polygon","coordinates":[[[-56.134,50.687],[-57.359,50.718],[-59.266,47.603],[-56.251,47.633],[-53.069,46.655],[-52.648,47.536],[-53.477,49.249],[-55.822,49.587],[-56.134,50.687]]]},"properties":{"scalerank":1,"featureclass":"Country"}},
{"type":"Feature","geometry":{"type":"Polygon","coordinates":[[[-132.71,54.04],[-133.055,53.411],[-132.049,52.985],[-131.75,54.12],[-132.71,54.04]]]},"properties":{"scalerank":1,"featureclass":"Country"}},
{"type":"Feature","geometry":{"type":"Polygon","coordinates":[[[143.648,50.748],[143.261,52.741],[141.683,53.302],[141.594,51.935],[142.18,50.952],[141.907,46.806],[143.174,49.307],[144.654,48.976],[143.648,50.748]]]},"properties":{"scalerank":1,"featureclass":"Country"}},
{"type":"Feature","geometry":{"type":"Polygon","coordinates":[[[-6.789,52.26],[-5.662,54.555],[-7.572,55.132],[-9.689,53.881],[-9.166,52.865],[-9.977,51.82],[-8.562,51.669],[-6.789,52.26]]]},"properties":{"scalerank":1,"featureclass":"Country"}},
{"type":"Feature","geometry":{"type":"Polygon","coordinates":[[[12.69,55.61],[12.371,56.111],[10.904,55.78],[12.09,54.8],[12.69,55.61]]]},"properties":{"scalerank":1,"featureclass":"Country"}},
{"type":"Feature","geometry":{"type":"Polygon","coordinates":[[[-153.006,57.116],[-153.229,57.969],[-154.671,57.461],[-154.005,56.735],[-153.006,57.116]]]},"properties":{"scalerank":1,"featureclass":"Country"}},
{"type":"Feature","geometry":{"type":"Polygon","coordinates":[[[-3.005,58.635],[-5.01,58.63],[-6.15,56.785],[-5.586,55.311],[-3.63,54.615],[-3.092,53.404],[-4.58,53.495],[-5.267,51.991],[-3.617,50.228],[0.55,50.766],[1.682,52.74],[0.47,52.93],[-0.43,54.464],[-2.085,55.91],[-1.959,57.685],[-3.005,58.635]]]},"properties":{"scalerank":1,"featureclass":"Country"}},
{"type":"Feature","geometry":{"type":"Polygon","coordinates":[[[-165.579,59.91],[-165.674,60.294],[-167.455,60.213],[-166.193,59.754],[-165.579,59.91]]]},"properties":{"scalerank":1,"featureclass":"Country"}},
{"type":"Feature","geometry":{"type":"Polygon","coordinates":[[[-79.266,62.159],[-80.362,62.016],[-79.658,61.633],[-79.266,62.159]]]},"properties":{"scalerank":1,"featureclass":"Country"}},
{"type":"Feature","geometry":{"type":"Polygon","coordinates":[[[-81.898,62.711],[-83.25,62.914],[-83.994,62.453],[-83.069,62.159],[-81.898,62.711]]]},"properties":{"scalerank":1,"featureclass":"Country"}},
{"type":"Feature","geometry":{"type":"Polygon","coordinates":[[[-171.732,63.783],[-169.529,62.977],[-168.689,63.298],[-171.732,63.783]]]},"properties":{"scalerank":1,"featureclass":"Country"}},
{"type":"Feature","geometry":{"type":"Polygon","coordinates":[[[-85.161,65.657],[-86.353,64.036],[-85.523,63.052],[-83.109,64.102],[-85.161,65.657]]]},"properties":{"scalerank":1,"featureclass":"Country"}},
{"type":"Feature","geometry":{"type":"Polygon","coordinates":[[[-14.509,66.456],[-20.576,65.732],[-23.651,66.263],[-23.955,64.891],[-22.763,63.96],[-18.656,63.496],[-14.91,64.364],[-13.61,65.127],[-14.509,66.456]]]},"properties":{"scalerank":1,"featureclass":"Country"}},
{"type":"Feature","geometry":{"type":"Polygon","coordinates":[[[-75.866,67.149],[-75.114,68.01],[-76.812,68.149],[-76.987,67.099],[-75.866,67.149]]]},"properties":{"scalerank":1,"featureclass":"Country"}},
{"type":"Feature","geometry":{"type":"Polygon","coordinates":[[[-175.014,66.584],[-174.928,67.206],[-180,68.964],[-180,64.98],[-178.36,65.391],[-173.892,64.283],[-172.53,65.438],[-169.9,65.977],[-171.857,66.913],[-175.014,66.584]]]},"properties":{"scalerank":1,"featureclass":"Country"}},
{"type":"Feature","geometry":{"type":"Polygon","coordinates":[[[-95.648,69.108],[-98.218,70.144],[-99.797,69.4],[-98.432,68.951],[-95.648,69.108]]]},"properties":{"scalerank":1,"featureclass":"Country"}},
{"type":"Feature","geometry":{"type":"Polygon","coordinates":[[[180,70.832],[180,71.516],[178.725,71.099],[180,70.832]]]},"properties":{"scalerank":1,"featureclass":"Country"}},
{"type":"Feature","geometry":{"type":"Polygon","coordinates":[[[-178.694,70.893],[-177.578,71.269],[-180,71.516],[-180,70.832],[-178.694,70.893]]]},"properties":{"scalerank":1,"featureclass":"Country"}},
{"type":"Feature","geometry":{"type":"Polygon","coordinates":[[[-90.547,69.498],[-92.878,71.319],[-95.209,71.92],[-96.471,70.09],[-94.233,69.069],[-94.685,68.064],[-97.669,68.579],[-98.443,67.782],[-101.454,67.647],[-104.338,68.018],[-106.15,68.8],[-109.946,67.981],[-113.497,67.688],[-113.898,68.399],[-119.943,69.378],[-121.472,69.798],[-125.756,69.481],[-127.447,70.377],[-136.504,68.898],[-143.589,70.153],[-144.92,69.99],[-152.27,70.6],[-156.581,71.358],[-161.909,70.333],[-165.39,68.043],[-164.475,66.577],[-168.11,65.67],[-166.425,64.687],[-160.958,64.223],[-163.067,63.06],[-164.562,63.146],[-166.121,61.5],[-165.346,60.508],[-163.818,59.798],[-161.874,59.634],[-157.723,57.57],[-160.564,56.008],[-158.433,55.994],[-156.308,57.423],[-154.232,58.146],[-154.019,59.35],[-151.716,59.156],[-148.018,59.978],[-147.114,60.885],[-143.959,59.999],[-139.868,59.538],[-137.8,58.5],[-134.078,58.123],[-132.25,56.37],[-131.967,55.498],[-130.536,54.803],[-129.13,52.755],[-127.85,52.33],[-127.436,50.831],[-125.625,50.417],[-122.974,49.003],[-122.5,48.18],[-124.687,48.185],[-123.899,45.523],[-124.533,42.766],[-124.214,42],[-124.398,40.313],[-123.727,38.952],[-121.715,36.162],[-120.368,34.447],[-118.52,34.028],[-117.296,33.046],[-116.721,31.636],[-115.519,29.556],[-114.162,28.566],[-114.466,27.142],[-112.301,26.012],[-112.182,24.739],[-110.295,23.431],[-111.617,26.663],[-112.962,28.425],[-114.674,30.163],[-114.776,31.8],[-113.149,31.171],[-112.228,28.955],[-110.392,27.162],[-109.292,26.443],[-109.444,25.825],[-108.402,25.172],[-106.029,22.774],[-105.271,21.076],[-105.731,20.434],[-104.992,19.316],[-103.501,18.292],[-101.919,17.916],[-100.83,17.171],[-96.557,15.654],[-94.692,16.201],[-93.359,15.615],[-91.232,13.928],[-87.904,13.149],[-85.713,11.089],[-85.797,10.135],[-83.633,9.052],[-82.966,8.225],[-81.721,8.109],[-80.886,7.221],[-80.481,8.09],[-79.12,8.996],[-77.477,6.691],[-77.533,5.583],[-77.128,3.85],[-78.428,2.63],[-78.855,1.381],[-80.091,0.768],[-80.934,-1.057],[-80.302,-3.405],[-81.411,-4.737],[-81.25,-6.137],[-79.76,-7.194],[-79.037,-8.387],[-77.106,-12.223],[-76.259,-13.535],[-76.009,-14.649],[-73.445,-16.359],[-71.462,-17.363],[-70.372,-18.348],[-70.091,-21.393],[-70.725,-25.706],[-70.905,-27.64],[-71.49,-28.861],[-71.669,-30.921],[-71.438,-32.419],[-73.167,-37.124],[-73.218,-39.259],[-73.677,-39.942],[-74.332,-43.225],[-74.692,-45.764],[-75.644,-46.648],[-75.183,-47.712],[-75.608,-48.674],[-74.947,-52.263],[-72.558,-53.531],[-68.815,-51.771],[-69.138,-50.732],[-67.816,-49.87],[-67.166,-48.697],[-65.985,-48.133],[-65.641,-47.236],[-67.581,-46.302],[-66.51,-45.04],[-65.565,-45.037],[-65.182,-43.495],[-64.379,-42.873],[-65.118,-41.064],[-63.771,-41.167],[-62.146,-40.677],[-62.336,-38.828],[-59.232,-38.72],[-57.749,-38.184],[-56.788,-36.901],[-57.362,-35.977],[-57.14,-34.43],[-54.936,-34.953],[-53.806,-34.397],[-52.256,-32.245],[-50.697,-30.984],[-49.587,-29.224],[-48.888,-28.674],[-48.475,-27.176],[-48.495,-25.877],[-47.649,-24.885],[-46.472,-24.089],[-44.648,-23.352],[-41.988,-22.97],[-40.945,-21.937],[-40.775,-20.904],[-39.761,-19.599],[-38.882,-15.667],[-38.953,-13.793],[-37.047,-11.041],[-35.128,-8.996],[-34.73,-7.343],[-35.235,-5.465],[-37.223,-4.821],[-38.5,-3.701],[-39.979,-2.873],[-41.473,-2.912],[-44.418,-2.138],[-44.906,-1.552],[-48.62,-0.235],[-50.388,-0.078],[-49.947,1.046],[-50.509,1.901],[-51.317,4.203],[-52.882,5.41],[-55.033,6.025],[-55.949,5.773],[-57.147,5.973],[-59.102,7.999],[-60.15,8.603],[-61.589,9.873],[-62.73,10.42],[-64.318,10.641],[-64.89,10.077],[-66.228,10.649],[-68.194,10.555],[-68.883,11.443],[-71.401,10.969],[-71.04,9.86],[-72.074,9.866],[-71.137,12.113],[-71.754,12.437],[-73.415,11.227],[-74.197,11.31],[-75.48,10.619],[-75.675,9.443],[-76.837,8.639],[-78.056,9.248],[-79.573,9.612],[-81.439,8.786],[-83.402,10.396],[-83.855,11.373],[-83.147,14.996],[-84.368,15.835],[-88.931,15.887],[-88.355,16.531],[-87.052,21.544],[-88.544,21.494],[-90.279,21],[-90.772,19.284],[-91.408,18.876],[-94.426,18.144],[-95.901,18.828],[-97.189,20.635],[-97.872,22.444],[-97.703,24.272],[-97.14,25.87],[-97.37,27.38],[-96.594,28.307],[-94.69,29.48],[-93.226,29.784],[-91.627,29.677],[-90.88,29.149],[-89.408,29.16],[-89.605,30.176],[-86.4,30.4],[-85.109,29.636],[-83.71,29.937],[-82.65,28.55],[-82.855,27.886],[-81.172,25.201],[-80.381,25.206],[-80.057,26.88],[-81.49,30.73],[-81.336,31.44],[-78.554,33.861],[-76.363,34.808],[-75.727,35.551],[-76.302,37.918],[-75.722,37.937],[-74.178,39.709],[-73.982,40.628],[-71.945,40.93],[-70.64,41.475],[-70.815,42.865],[-70.116,43.684],[-68.032,44.325],[-67.137,45.138],[-65.364,43.545],[-63.255,44.67],[-61.04,45.265],[-61.521,45.884],[-63.173,45.739],[-64.472,46.239],[-65.115,48.071],[-65.056,49.233],[-67.236,49.511],[-66.399,50.229],[-61.724,50.081],[-60.033,50.243],[-58.775,51.064],[-55.683,52.147],[-55.756,53.271],[-57.333,54.627],[-59.57,55.204],[-61.799,56.339],[-61.396,56.968],[-64.583,60.336],[-66.202,58.767],[-67.65,58.212],[-69.288,58.957],[-69.59,61.062],[-71.374,61.137],[-73.84,62.444],[-78.107,62.32],[-77.337,59.853],[-78.517,58.805],[-77.302,58.052],[-76.541,56.534],[-79.124,54.141],[-78.602,52.562],[-79.913,51.208],[-81.401,52.158],[-82.436,54.282],[-82.273,55.148],[-85.012,55.303],[-87.324,55.999],[-90.898,57.285],[-92.297,57.087],[-93.215,58.782],[-94.685,58.949],[-94.629,60.11],[-93.157,62.025],[-90.77,62.96],[-89.914,64.033],[-88.483,64.099],[-86.068,66.056],[-83.344,66.412],[-81.386,67.111],[-81.964,68.133],[-81.28,69.162],[-85.522,69.882],[-85.577,68.784],[-88.02,68.615],[-90.547,69.498]]]},"properties":{"scalerank":1,"featureclass":"Country"}},
{"type":"Feature","geometry":{"type":"Polygon","coordinates":[[[-114.167,73.121],[-117.866,72.706],[-119.402,71.559],[-116.108,69.168],[-113.313,68.536],[-109,68.78],[-105.96,69.18],[-102.43,68.753],[-100.981,70.024],[-104.465,70.993],[-105.402,72.673],[-107.516,73.236],[-111.05,72.45],[-114.167,73.121]]]},"properties":{"scalerank":1,"featureclass":"Country"}},
{"type":"Feature","geometry":{"type":"Polygon","coordinates":[[[-104.5,73.42],[-106.94,73.46],[-105.38,72.76],[-104.5,73.42]]]},"properties":{"scalerank":1,"featureclass":"Country"}},
{"type":"Feature","geometry":{"type":"Polygon","coordinates":[[[-76.34,73.103],[-80.353,73.76],[-79.776,72.803],[-76.34,73.103]]]},"properties":{"scalerank":1,"featureclass":"Country"}},
{"type":"Feature","geometry":{"type":"Polygon","coordinates":[[[-86.562,73.157],[-90.205,72.235],[-89.513,70.762],[-84.945,69.967],[-77.287,69.77],[-72.651,67.285],[-74.294,65.812],[-77.897,65.309],[-77.71,64.23],[-74.819,64.389],[-71.886,63.68],[-71.023,62.911],[-66.166,61.931],[-66.275,62.945],[-64.669,63.393],[-65.32,64.383],[-68.141,65.69],[-66.721,66.388],[-63.918,64.999],[-62.163,66.16],[-64.862,67.848],[-68.805,68.72],[-66.969,69.186],[-68.786,70.525],[-71.2,70.92],[-77.825,72.75],[-80.6,72.717],[-82.316,73.751],[-86.562,73.157]]]},"properties":{"scalerank":1,"featureclass":"Country"}},
{"type":"Feature","geometry":{"type":"Polygon","coordinates":[[[-100.356,73.844],[-102.5,72.51],[-98.36,71.273],[-96.72,71.66],[-97.12,73.47],[-100.356,73.844]]]},"properties":{"scalerank":1,"featureclass":"Country"}},
{"type":"Feature","geometry":{"type":"Polygon","coordinates":[[[143.604,73.212],[142.062,73.858],[140.038,73.317],[143.604,73.212]]]},"properties":{"scalerank":1,"featureclass":"Country"}},
{"type":"Feature","geometry":{"type":"Polygon","coordinates":[[[-93.196,72.772],[-90.51,73.857],[-94.504,74.135],[-96.034,72.94],[-93.196,72.772]]]},"properties":{"scalerank":1,"featureclass":"Country"}},
{"type":"Feature","geometry":{"type":"Polygon","coordinates":[[[-120.46,71.4],[-119.22,72.52],[-115.511,73.475],[-117.556,74.186],[-121.538,74.449],[-123.94,73.68],[-125.929,71.869],[-123.092,70.902],[-120.46,71.4]]]},"properties":{"scalerank":1,"featureclass":"Country"}},
{"type":"Feature","geometry":{"type":"Polygon","coordinates":[[[150.732,75.084],[146.358,75.497],[146.119,75.173],[149.576,74.689],[150.732,75.084]]]},"properties":{"scalerank":1,"featureclass":"Country"}},
{"type":"Feature","geometry":{"type":"Polygon","coordinates":[[[-93.613,74.98],[-94.851,75.647],[-96.821,74.928],[-93.613,74.98]]]},"properties":{"scalerank":1,"featureclass":"Country"}},
{"type":"Feature","geometry":{"type":"Polygon","coordinates":[[[145.086,75.563],[141.472,76.093],[137.512,75.949],[138.955,74.611],[144.3,74.82],[145.086,75.563]]]},"properties":{"scalerank":1,"featureclass":"Country"}},
{"type":"Feature","geometry":{"type":"Polygon","coordinates":[[[-98.5,76.72],[-101.49,76.305],[-100.884,75.057],[-98.16,75],[-98.5,76.72]]]},"properties":{"scalerank":1,"featureclass":"Country"}},
{"type":"Feature","geometry":{"type":"Polygon","coordinates":[[[-108.211,76.202],[-109.067,75.473],[-115.405,76.479],[-117.71,75.222],[-112.223,74.417],[-106.313,75.005],[-108.211,76.202]]]},"properties":{"scalerank":1,"featureclass":"Country"}},
{"type":"Feature","geometry":{"type":"Polygon","coordinates":[[[57.536,70.72],[55.419,72.371],[58.477,74.309],[61.584,75.261],[61.17,76.252],[55.632,75.081],[51.456,72.015],[53.677,70.763],[57.536,70.72]]]},"properties":{"scalerank":1,"featureclass":"Country"}},
{"type":"Feature","geometry":{"type":"Polygon","coordinates":[[[-94.684,77.098],[-92.422,74.838],[-88.15,74.392],[-79.834,74.923],[-81.129,75.714],[-89.187,75.61],[-91.605,76.779],[-94.684,77.098]]]},"properties":{"scalerank":1,"featureclass":"Country"}},
{"type":"Feature","geometry":{"type":"Polygon","coordinates":[[[-116.199,77.645],[-119.104,77.512],[-122.855,76.117],[-119.899,76.053],[-116.336,76.877],[-116.199,77.645]]]},"properties":{"scalerank":1,"featureclass":"Country"}},
{"type":"Feature","geometry":{"type":"Polygon","coordinates":[[[106.97,76.974],[104.352,77.698],[98.922,76.447],[87.167,75.117],[86.822,73.937],[80.511,73.648],[79.652,72.32],[75.683,72.3],[69.94,73.04],[66.695,71.029],[66.93,69.455],[69.181,68.616],[68.512,68.092],[63.504,69.547],[61.078,68.941],[57.317,68.466],[53.718,68.857],[43.95,66.069],[42.093,66.476],[39.763,65.497],[34.944,64.414],[34.815,65.9],[38.383,66],[41.126,66.792],[40.292,67.932],[36.514,69.063],[33.776,69.302],[31.294,70.454],[28.166,71.185],[24.547,71.031],[23.024,70.202],[19.184,69.818],[14.761,67.811],[10.528,64.486],[8.554,63.454],[4.992,61.971],[5.666,58.588],[8.382,58.313],[10.357,59.47],[12.625,56.307],[15.88,56.104],[16.829,58.72],[18.788,60.082],[17.12,61.341],[17.848,62.75],[21.37,64.414],[22.183,65.724],[23.904,66.007],[25.398,65.112],[22.443,63.818],[21.059,62.607],[21.322,60.72],[22.87,59.846],[28.07,60.503],[27.981,59.476],[25.864,59.611],[23.34,59.187],[24.429,58.383],[21.091,56.784],[21.268,55.19],[19.661,54.426],[17.623,54.852],[14.12,53.757],[9.94,54.597],[9.65,55.47],[10.25,56.89],[8.544,57.11],[8.12,55.518],[8.801,54.021],[4.706,53.092],[3.83,51.62],[1.639,50.947],[1.339,50.127],[-0.989,49.347],[-1.617,48.644],[-3.296,48.902],[-4.492,47.955],[-2.963,47.57],[-1.194,46.015],[-1.384,44.023],[-1.901,43.423],[-4.348,43.404],[-7.978,43.748],[-8.984,42.593],[-8.769,40.761],[-9.526,38.737],[-8.84,38.266],[-8.899,36.869],[-6.52,36.943],[-5.377,35.947],[-4.369,36.678],[-2.146,36.674],[-0.683,37.642],[0.111,38.739],[-0.279,39.31],[0.81,41.015],[2.092,41.226],[3.039,41.892],[3.101,43.075],[4.557,43.4],[6.529,43.129],[8.889,44.366],[10.2,43.92],[10.512,42.932],[12.107,41.705],[13.628,41.188],[15.414,40.048],[16.449,39.795],[17.519,40.877],[15.889,41.541],[14.03,42.761],[12.589,44.091],[12.329,45.382],[13.142,45.737],[14.902,45.076],[16.016,43.507],[18.882,42.281],[19.54,41.72],[19.406,40.251],[21.12,38.31],[21.67,36.845],[24.04,37.655],[22.85,39.659],[24.408,40.125],[24.926,40.947],[26.358,40.152],[28.115,41.623],[27.674,42.578],[28.558,43.708],[28.838,44.914],[30.749,46.583],[33.299,46.081],[33.883,44.362],[35.24,44.94],[34.962,46.273],[37.425,47.022],[38.233,46.241],[37.403,45.404],[37.539,44.657],[38.68,44.28],[41.453,42.645],[41.554,41.536],[40.373,41.014],[38.348,40.949],[35.168,42.04],[33.513,42.019],[31.146,41.088],[29.24,41.22],[28.82,40.46],[27.28,40.42],[26.171,39.464],[26.318,38.208],[27.641,36.659],[29.7,36.144],[30.622,36.678],[32.509,36.107],[34.027,36.22],[34.714,36.795],[36.15,35.821],[35.998,34.645],[34.266,31.219],[32.994,31.024],[30.977,31.556],[28.914,30.87],[26.495,31.586],[23.237,32.192],[22.896,32.638],[20.854,32.707],[19.82,31.752],[20.053,30.986],[19.086,30.266],[15.714,31.376],[15.246,32.265],[12.663,32.793],[11.109,33.293],[10.15,34.331],[10.94,35.699],[9.51,37.35],[8.421,36.946],[6.262,37.111],[1.467,36.606],[-2.17,35.169],[-4.591,35.331],[-5.93,35.76],[-6.912,34.11],[-8.657,33.24],[-9.815,31.178],[-9.565,29.934],[-11.689,28.149],[-12.619,28.038],[-13.774,26.619],[-14.44,26.255],[-15.089,24.52],[-15.983,23.724],[-16.262,22.679],[-16.973,21.886],[-17.063,21],[-16.278,20.093],[-16.146,18.109],[-16.463,16.135],[-17.185,14.919],[-16.714,13.595],[-16.614,12.171],[-14.839,10.877],[-14.58,10.214],[-13.247,8.903],[-12.949,7.799],[-11.439,6.786],[-9.005,4.833],[-7.519,4.338],[-5.834,4.994],[-4.009,5.18],[-1.965,4.711],[1.06,5.929],[2.692,6.259],[4.326,6.271],[5.898,4.263],[6.698,4.241],[8.5,4.772],[9.795,3.073],[9.493,1.01],[8.798,-1.111],[9.405,-2.144],[11.915,-5.038],[13.237,-8.563],[12.875,-9.167],[13.687,-10.731],[13.634,-12.039],[12.739,-13.138],[12.176,-14.449],[11.64,-16.673],[11.795,-18.069],[12.609,-19.045],[13.352,-20.873],[14.258,-22.111],[14.408,-23.853],[15.211,-27.091],[16.345,-28.577],[18.222,-31.662],[18.245,-33.868],[19.617,-34.819],[22.574,-33.864],[25.781,-33.945],[28.22,-32.772],[30.056,-31.14],[31.326,-29.402],[32.462,-28.301],[33.013,-25.357],[35.459,-24.123],[35.563,-22.09],[34.702,-20.497],[34.786,-19.784],[37.411,-17.586],[39.453,-16.721],[40.776,-14.692],[40.6,-14.202],[40.479,-10.765],[39.187,-8.485],[39.44,-6.84],[38.74,-5.909],[39.605,-4.346],[40.263,-2.573],[41.585,-1.683],[43.136,0.292],[46.565,2.855],[48.594,5.339],[49.453,6.805],[51.045,10.641],[51.111,12.025],[49.268,11.43],[46.646,10.817],[44.118,10.446],[43.471,11.278],[43.318,12.39],[41.179,14.491],[39.266,15.923],[38.41,17.998],[37.482,18.614],[37.115,19.808],[36.866,22],[35.526,23.102],[35.693,23.927],[34.105,26.142],[33.349,27.7],[35.13,28.063],[36.932,25.603],[37.484,24.286],[38.493,23.688],[39.066,22.58],[39.14,21.292],[39.802,20.339],[40.939,19.487],[41.755,17.833],[42.65,16.775],[42.703,15.719],[43.483,12.637],[44.99,12.7],[45.625,13.291],[48.679,14.003],[49.575,14.709],[52.168,15.597],[52.385,16.383],[55.275,17.228],[56.61,18.574],[57.789,19.068],[57.666,19.736],[58.488,20.429],[59.806,22.31],[58.729,23.566],[57.404,23.879],[55.439,25.439],[54.008,24.122],[51.794,24.02],[51.39,24.628],[51.589,25.801],[50.113,25.944],[50.153,26.69],[48.808,27.69],[48.094,29.306],[48.941,30.317],[50.115,30.148],[51.521,27.866],[53.493,26.813],[54.715,26.481],[56.492,27.143],[57.397,25.74],[61.497,25.078],[66.373,25.425],[67.444,23.945],[69.35,22.843],[69.164,22.089],[70.471,20.877],[71.175,20.758],[72.631,21.356],[72.821,19.208],[73.534,15.991],[74.444,14.617],[74.865,12.742],[75.747,11.308],[76.593,8.899],[77.54,7.966],[79.858,10.357],[79.862,12.056],[80.286,13.006],[80.025,15.136],[80.325,15.899],[82.191,16.557],[82.193,17.017],[83.941,18.302],[85.06,19.479],[86.499,20.152],[86.976,21.495],[90.273,21.836],[90.496,22.805],[91.417,22.765],[92.369,20.671],[94.325,18.214],[94.534,17.277],[94.189,16.038],[95.369,15.714],[97.165,16.929],[97.597,16.101],[98.104,13.641],[98.51,13.122],[98.504,8.382],[99.52,7.344],[100.306,6.041],[100.197,5.313],[101.391,2.761],[103.52,1.226],[104.229,1.293],[103.503,2.791],[103.381,4.855],[101.623,6.741],[100.459,7.43],[99.874,9.208],[99.154,9.963],[100.019,12.307],[100.098,13.407],[100.979,13.413],[102.585,12.187],[103.497,10.633],[105.076,9.919],[105.158,8.6],[107.221,10.365],[109.2,11.667],[109.335,13.426],[108.877,15.277],[107.362,16.698],[105.662,19.058],[106.715,20.697],[108.523,21.715],[109.865,21.395],[111.844,21.55],[115.891,22.783],[118.657,24.547],[121.126,28.136],[121.685,28.226],[122.092,29.833],[121.264,30.676],[121.908,31.692],[120.62,33.377],[120.227,34.36],[119.151,34.91],[122.358,37.455],[120.823,37.87],[119.703,37.156],[118.06,38.062],[117.533,38.738],[119.023,39.252],[119.64,39.898],[121.641,40.946],[121.377,39.75],[122.132,39.17],[124.266,39.929],[125.387,39.388],[124.712,38.108],[126.175,37.75],[126.559,35.685],[126.486,34.39],[129.091,35.083],[129.461,36.784],[127.534,39.757],[129.705,40.883],[129.667,41.601],[132.278,43.284],[133.537,42.812],[134.87,43.398],[138.22,46.308],[140.062,48.447],[140.597,51.24],[141.345,53.09],[139.901,54.19],[137.193,53.977],[135.126,54.73],[138.958,57.088],[142.198,59.04],[145.487,59.336],[148.545,59.164],[149.784,59.656],[151.266,58.781],[155.044,59.145],[154.218,59.758],[156.721,61.435],[159.302,61.774],[160.122,60.544],[162.658,61.643],[163.67,61.141],[158.364,58.056],[156.81,57.832],[155.434,55.381],[155.992,53.159],[156.79,51.011],[158.231,51.943],[158.531,52.959],[160.022,53.203],[160.369,54.344],[162.117,54.855],[163.058,56.159],[163.192,57.615],[162.017,58.243],[163.539,59.869],[166.295,59.789],[168.901,60.573],[170.698,60.336],[173.68,61.653],[179.37,62.983],[178.313,64.076],[180,64.98],[180,68.964],[175.724,69.877],[170.453,70.097],[167.836,69.583],[160.941,69.437],[159.83,70.453],[157.007,71.031],[152.969,70.842],[149.5,72.2],[140.468,72.849],[139.87,71.488],[133.858,71.386],[131.289,70.787],[128.46,71.98],[126.977,73.565],[113.969,73.595],[109.4,74.18],[113.885,75.328],[111.077,76.71],[106.97,76.974]],[[49.11,41.282],[47.492,42.987],[46.682,44.609],[47.676,45.641],[51.192,47.049],[53.043,46.853],[53.041,45.259],[51.317,45.246],[50.891,44.031],[51.343,43.133],[53.722,42.123],[54.737,40.951],[52.694,40.034],[53.881,38.952],[53.826,36.965],[52.264,36.701],[50.842,36.873],[49.2,37.583],[49.619,40.573],[49.11,41.282]]]},"properties":{"scalerank":1,"featureclass":"Country"}},
{"type":"Feature","geometry":{"type":"Polygon","coordinates":[[[-93.84,77.52],[-94.423,77.82],[-96.436,77.835],[-96.17,77.555],[-93.84,77.52]]]},"properties":{"scalerank":1,"featureclass":"Country"}},
{"type":"Feature","geometry":{"type":"Polygon","coordinates":[[[-110.187,77.697],[-112.725,78.051],[-113.534,77.732],[-112.051,77.409],[-110.187,77.697]]]},"properties":{"scalerank":1,"featureclass":"Country"}},
{"type":"Feature","geometry":{"type":"Polygon","coordinates":[[[24.724,77.854],[22.884,78.455],[20.812,78.255],[22.49,77.445],[24.724,77.854]]]},"properties":{"scalerank":1,"featureclass":"Country"}},
{"type":"Feature","geometry":{"type":"Polygon","coordinates":[[[-109.663,78.602],[-111.5,78.85],[-112.542,78.408],[-109.663,78.602]]]},"properties":{"scalerank":1,"featureclass":"Country"}},
{"type":"Feature","geometry":{"type":"Polygon","coordinates":[[[-95.83,78.057],[-95.559,78.418],[-98.632,78.872],[-98.124,78.083],[-95.83,78.057]]]},"properties":{"scalerank":1,"featureclass":"Country"}},
{"type":"Feature","geometry":{"type":"Polygon","coordinates":[[[-100.06,78.325],[-100.825,78.8],[-105.42,78.918],[-101.304,78.019],[-100.06,78.325]]]},"properties":{"scalerank":1,"featureclass":"Country"}},
{"type":"Feature","geometry":{"type":"Polygon","coordinates":[[[105.075,78.307],[101.265,79.234],[99.438,77.921],[105.075,78.307]]]},"properties":{"scalerank":1,"featureclass":"Country"}},
{"type":"Feature","geometry":{"type":"Polygon","coordinates":[[[18.252,79.702],[10.445,79.652],[13.763,77.38],[17.118,76.809],[19.027,78.563],[18.252,79.702]]]},"properties":{"scalerank":1,"featureclass":"Country"}},
{"type":"Feature","geometry":{"type":"Polygon","coordinates":[[[25.448,80.407],[17.368,80.319],[20.075,79.567],[25.925,79.518],[25.448,80.407]]]},"properties":{"scalerank":1,"featureclass":"Country"}},
{"type":"Feature","geometry":{"type":"Polygon","coordinates":[[[51.136,80.547],[46.799,80.772],[46.503,80.247],[51.136,80.547]]]},"properties":{"scalerank":1,"featureclass":"Country"}},
{"type":"Feature","geometry":{"type":"Polygon","coordinates":[[[99.94,78.881],[100.187,79.78],[95.941,81.25],[91.181,80.341],[93.313,79.427],[99.94,78.881]]]},"properties":{"scalerank":1,"featureclass":"Country"}},
{"type":"Feature","geometry":{"type":"Polygon","coordinates":[[[-87.02,79.66],[-87.81,80.32],[-94.735,81.206],[-96.71,80.158],[-92.877,78.343],[-89.035,78.287],[-87.02,79.66]]]},"properties":{"scalerank":1,"featureclass":"Country"}},
{"type":"Feature","geometry":{"type":"Polygon","coordinates":[[[-68.5,83.106],[-79.307,83.131],[-91.587,81.894],[-85.095,79.345],[-89.491,76.472],[-80.561,76.178],[-79.76,77.21],[-71.18,79.8],[-61.894,82.362],[-68.5,83.106]]]},"properties":{"scalerank":1,"featureclass":"Country"}},
{"type":"Feature","geometry":{"type":"Polygon","coordinates":[[[-27.1,83.52],[-38.622,83.549],[-46.764,82.628],[-62.651,81.77],[-68.023,80.117],[-65.711,79.394],[-73.159,78.433],[-71.403,77.009],[-68.504,76.061],[-61.269,76.102],[-58.585,75.517],[-54.004,71.547],[-54.683,69.61],[-52.98,68.358],[-53.969,67.189],[-53.662,66.1],[-52.277,65.177],[-51.633,63.627],[-48.263,60.858],[-46.264,60.853],[-44.787,60.037],[-43.378,60.098],[-42.417,61.901],[-42.819,62.682],[-41.189,63.482],[-39.812,65.458],[-36.353,65.979],[-34.202,66.68],[-32.811,67.735],[-27.747,68.47],[-22.349,70.129],[-21.754,70.664],[-23.443,72.08],[-19.373,74.296],[-19.834,76.098],[-18.473,76.986],[-19.705,78.751],[-17.73,80.129],[-12.209,81.292],[-27.1,83.52]]]},"properties":{"scalerank":1,"featureclass":"Country"}}
]}